KINEIS-1B               
1 60079U 24114A   26186.29846318  .00001019  00000+0  13955-3 0  9994
2 60079  97.9826 210.3975 0003586  59.4422 300.7144 14.80656378110087
KINEIS-1C               
1 60081U 24114C   26186.33210722  .00000970  00000+0  13307-3 0  9992
2 60081  97.9846 210.2840 0002450 106.9088 253.2393 14.80658492110062
KINEIS-1D               
1 60082U 24114D   26186.34358834  .00000755  00000+0  11607-3 0  9993
2 60082  97.9882 206.2803 0002752 113.2756 246.8744 14.76353807109800
KINEIS-1E               
1 60083U 24114E   26186.28249903  .00001384  00000+0  18678-3 0  9997
2 60083  97.8942 209.4138 0003721 130.0015 230.1525 14.80681358110068
KINEIS-1A               
1 60084U 24114F   26186.31586862  .00001088  00000+0  14828-3 0  9994
2 60084  97.8916 209.5439 0005676  85.8169 274.3692 14.80671381110074
KINEIS-3C               
1 61220U 24172A   26186.21833231  .00002755  00000+0  44314-3 0  9990
2 61220  98.0435 275.9263 0002819  97.0929 263.0599 14.72349594 95727
KINEIS-3D               
1 61221U 24172B   26186.21159883  .00003093  00000+0  49658-3 0  9997
2 61221  98.0430 275.9300 0002662  97.1211 263.0299 14.72351148 96003
KINEIS-3E               
1 61222U 24172C   26186.19453616  .00003013  00000+0  48430-3 0  9995
2 61222  98.0425 275.8951 0001923  96.1126 264.0300 14.72318097 96002
KINEIS-3A               
1 61223U 24172D   26186.17791020  .00002979  00000+0  47920-3 0  9991
2 61223  98.0420 275.9772 0002793  62.4177 297.7313 14.72287592 95425
KINEIS-3B               
1 61224U 24172E   26186.22841681  .00002863  00000+0  46021-3 0  9990
2 61224  98.0414 276.0505 0002387  50.4628 309.6790 14.72361884 96006
KINEIS-5C               
1 62081U 24219A   26186.27371323  .00000793  00000+0  13312-3 0  9997
2 62081  97.9058 344.6250 0003329 205.8814 154.2227 14.72305667 86419
KINEIS-5D               
1 62082U 24219B   26186.30142066  .00001162  00000+0  19079-3 0  9999
2 62082  97.9169 344.7035 0004448 198.6982 161.4063 14.72481119 86429
KINEIS-5E               
1 62083U 24219C   26186.24998797  .00000733  00000+0  12372-3 0  9995
2 62083  97.9014 344.7017 0005942 195.7381 164.3643 14.72290703 86423
KINEIS-5A               
1 62084U 24219D   26185.07256402  .00001532  00000+0  24986-3 0  9998
2 62084  97.8954 343.8459 0003070 244.6142 115.4748 14.72316637 86254
KINEIS-5B               
1 62085U 24219E   26186.25461966  .00001328  00000+0  18955-3 0  9995
2 62085  98.0081 349.9855 0001759 165.8128 194.3133 14.78370777 86677
KINEIS-2C               
1 62929U 25028B   26185.90996296  .00002240  00000+0  35332-3 0  9993
2 62929  98.1234 240.3227 0003391 189.3280 170.7866 14.73409545 75227
