{"fetched_at":"2026-07-05T12:48:04.291Z","source":"https://celestrak.org/NORAD/elements/gp.php?NAME=KINEIS&FORMAT=JSON","constellation":"kineis","records":[{"OBJECT_NAME":"KINEIS-1B","OBJECT_ID":"2024-114A","EPOCH":"2026-07-05T07:09:47.218752","CLASSIFICATION_TYPE":"U","MEAN_MOTION":14.80656378,"ECCENTRICITY":0.00035866,"INCLINATION":97.9826,"RA_OF_ASC_NODE":210.3975,"ARG_OF_PERICENTER":59.4422,"MEAN_ANOMALY":300.7144,"EPHEMERIS_TYPE":0,"NORAD_CAT_ID":60079,"ELEMENT_SET_NO":999,"REV_AT_EPOCH":11008,"BSTAR":0.00013955011,"MEAN_MOTION_DOT":0.00001019,"MEAN_MOTION_DDOT":0},{"OBJECT_NAME":"KINEIS-1C","OBJECT_ID":"2024-114C","EPOCH":"2026-07-05T07:58:14.063808","CLASSIFICATION_TYPE":"U","MEAN_MOTION":14.80658492,"ECCENTRICITY":0.00024503,"INCLINATION":97.9846,"RA_OF_ASC_NODE":210.284,"ARG_OF_PERICENTER":106.9088,"MEAN_ANOMALY":253.2393,"EPHEMERIS_TYPE":0,"NORAD_CAT_ID":60081,"ELEMENT_SET_NO":999,"REV_AT_EPOCH":11006,"BSTAR":0.00013306902,"MEAN_MOTION_DOT":0.0000097,"MEAN_MOTION_DDOT":0},{"OBJECT_NAME":"KINEIS-1D","OBJECT_ID":"2024-114D","EPOCH":"2026-07-05T08:14:46.032576","CLASSIFICATION_TYPE":"U","MEAN_MOTION":14.76353807,"ECCENTRICITY":0.00027526,"INCLINATION":97.9882,"RA_OF_ASC_NODE":206.2803,"ARG_OF_PERICENTER":113.2756,"MEAN_ANOMALY":246.8744,"EPHEMERIS_TYPE":0,"NORAD_CAT_ID":60082,"ELEMENT_SET_NO":999,"REV_AT_EPOCH":10980,"BSTAR":0.00011607487,"MEAN_MOTION_DOT":0.00000755,"MEAN_MOTION_DDOT":0},{"OBJECT_NAME":"KINEIS-1E","OBJECT_ID":"2024-114E","EPOCH":"2026-07-05T06:46:47.916192","CLASSIFICATION_TYPE":"U","MEAN_MOTION":14.80681358,"ECCENTRICITY":0.00037216,"INCLINATION":97.8942,"RA_OF_ASC_NODE":209.4138,"ARG_OF_PERICENTER":130.0015,"MEAN_ANOMALY":230.1525,"EPHEMERIS_TYPE":0,"NORAD_CAT_ID":60083,"ELEMENT_SET_NO":999,"REV_AT_EPOCH":11006,"BSTAR":0.00018678407,"MEAN_MOTION_DOT":0.00001384,"MEAN_MOTION_DDOT":0},{"OBJECT_NAME":"KINEIS-1A","OBJECT_ID":"2024-114F","EPOCH":"2026-07-05T07:34:51.048768","CLASSIFICATION_TYPE":"U","MEAN_MOTION":14.80671381,"ECCENTRICITY":0.00056761,"INCLINATION":97.8916,"RA_OF_ASC_NODE":209.5439,"ARG_OF_PERICENTER":85.8169,"MEAN_ANOMALY":274.3692,"EPHEMERIS_TYPE":0,"NORAD_CAT_ID":60084,"ELEMENT_SET_NO":999,"REV_AT_EPOCH":11007,"BSTAR":0.00014828086,"MEAN_MOTION_DOT":0.00001088,"MEAN_MOTION_DDOT":0},{"OBJECT_NAME":"KINEIS-3C","OBJECT_ID":"2024-172A","EPOCH":"2026-07-05T05:14:23.911584","CLASSIFICATION_TYPE":"U","MEAN_MOTION":14.72349594,"ECCENTRICITY":0.00028193,"INCLINATION":98.0435,"RA_OF_ASC_NODE":275.9263,"ARG_OF_PERICENTER":97.0929,"MEAN_ANOMALY":263.0599,"EPHEMERIS_TYPE":0,"NORAD_CAT_ID":61220,"ELEMENT_SET_NO":999,"REV_AT_EPOCH":9572,"BSTAR":0.00044314118,"MEAN_MOTION_DOT":0.00002755,"MEAN_MOTION_DDOT":0},{"OBJECT_NAME":"KINEIS-3D","OBJECT_ID":"2024-172B","EPOCH":"2026-07-05T05:04:42.138912","CLASSIFICATION_TYPE":"U","MEAN_MOTION":14.72351148,"ECCENTRICITY":0.00026621,"INCLINATION":98.043,"RA_OF_ASC_NODE":275.93,"ARG_OF_PERICENTER":97.1211,"MEAN_ANOMALY":263.0299,"EPHEMERIS_TYPE":0,"NORAD_CAT_ID":61221,"ELEMENT_SET_NO":999,"REV_AT_EPOCH":9600,"BSTAR":0.00049658139,"MEAN_MOTION_DOT":0.00003093,"MEAN_MOTION_DDOT":0},{"OBJECT_NAME":"KINEIS-3E","OBJECT_ID":"2024-172C","EPOCH":"2026-07-05T04:40:07.924224","CLASSIFICATION_TYPE":"U","MEAN_MOTION":14.72318097,"ECCENTRICITY":0.0001923,"INCLINATION":98.0425,"RA_OF_ASC_NODE":275.8951,"ARG_OF_PERICENTER":96.1126,"MEAN_ANOMALY":264.03,"EPHEMERIS_TYPE":0,"NORAD_CAT_ID":61222,"ELEMENT_SET_NO":999,"REV_AT_EPOCH":9600,"BSTAR":0.00048429648,"MEAN_MOTION_DOT":0.00003013,"MEAN_MOTION_DDOT":0},{"OBJECT_NAME":"KINEIS-3A","OBJECT_ID":"2024-172D","EPOCH":"2026-07-05T04:16:11.441280","CLASSIFICATION_TYPE":"U","MEAN_MOTION":14.72287592,"ECCENTRICITY":0.00027938,"INCLINATION":98.042,"RA_OF_ASC_NODE":275.9772,"ARG_OF_PERICENTER":62.4177,"MEAN_ANOMALY":297.7313,"EPHEMERIS_TYPE":0,"NORAD_CAT_ID":61223,"ELEMENT_SET_NO":999,"REV_AT_EPOCH":9542,"BSTAR":0.00047920341,"MEAN_MOTION_DOT":0.00002979,"MEAN_MOTION_DDOT":0},{"OBJECT_NAME":"KINEIS-3B","OBJECT_ID":"2024-172E","EPOCH":"2026-07-05T05:28:55.212384","CLASSIFICATION_TYPE":"U","MEAN_MOTION":14.72361884,"ECCENTRICITY":0.00023872,"INCLINATION":98.0414,"RA_OF_ASC_NODE":276.0505,"ARG_OF_PERICENTER":50.4628,"MEAN_ANOMALY":309.679,"EPHEMERIS_TYPE":0,"NORAD_CAT_ID":61224,"ELEMENT_SET_NO":999,"REV_AT_EPOCH":9600,"BSTAR":0.00046020923,"MEAN_MOTION_DOT":0.00002863,"MEAN_MOTION_DDOT":0},{"OBJECT_NAME":"KINEIS-5C","OBJECT_ID":"2024-219A","EPOCH":"2026-07-05T06:34:08.823072","CLASSIFICATION_TYPE":"U","MEAN_MOTION":14.72305667,"ECCENTRICITY":0.00033298,"INCLINATION":97.9058,"RA_OF_ASC_NODE":344.625,"ARG_OF_PERICENTER":205.8814,"MEAN_ANOMALY":154.2227,"EPHEMERIS_TYPE":0,"NORAD_CAT_ID":62081,"ELEMENT_SET_NO":999,"REV_AT_EPOCH":8641,"BSTAR":0.00013311746,"MEAN_MOTION_DOT":0.00000793,"MEAN_MOTION_DDOT":0},{"OBJECT_NAME":"KINEIS-5D","OBJECT_ID":"2024-219B","EPOCH":"2026-07-05T07:14:02.745024","CLASSIFICATION_TYPE":"U","MEAN_MOTION":14.72481119,"ECCENTRICITY":0.00044484,"INCLINATION":97.9169,"RA_OF_ASC_NODE":344.7035,"ARG_OF_PERICENTER":198.6982,"MEAN_ANOMALY":161.4063,"EPHEMERIS_TYPE":0,"NORAD_CAT_ID":62082,"ELEMENT_SET_NO":999,"REV_AT_EPOCH":8642,"BSTAR":0.00019078701,"MEAN_MOTION_DOT":0.00001162,"MEAN_MOTION_DDOT":0},{"OBJECT_NAME":"KINEIS-5E","OBJECT_ID":"2024-219C","EPOCH":"2026-07-05T05:59:58.960608","CLASSIFICATION_TYPE":"U","MEAN_MOTION":14.72290703,"ECCENTRICITY":0.00059428,"INCLINATION":97.9014,"RA_OF_ASC_NODE":344.7017,"ARG_OF_PERICENTER":195.7381,"MEAN_ANOMALY":164.3643,"EPHEMERIS_TYPE":0,"NORAD_CAT_ID":62083,"ELEMENT_SET_NO":999,"REV_AT_EPOCH":8642,"BSTAR":0.00012371925,"MEAN_MOTION_DOT":0.00000733,"MEAN_MOTION_DDOT":0},{"OBJECT_NAME":"KINEIS-5A","OBJECT_ID":"2024-219D","EPOCH":"2026-07-04T01:44:29.531328","CLASSIFICATION_TYPE":"U","MEAN_MOTION":14.72316637,"ECCENTRICITY":0.00030708,"INCLINATION":97.8954,"RA_OF_ASC_NODE":343.8459,"ARG_OF_PERICENTER":244.6142,"MEAN_ANOMALY":115.4748,"EPHEMERIS_TYPE":0,"NORAD_CAT_ID":62084,"ELEMENT_SET_NO":999,"REV_AT_EPOCH":8625,"BSTAR":0.00024986137,"MEAN_MOTION_DOT":0.00001532,"MEAN_MOTION_DDOT":0},{"OBJECT_NAME":"KINEIS-5B","OBJECT_ID":"2024-219E","EPOCH":"2026-07-05T06:06:39.138624","CLASSIFICATION_TYPE":"U","MEAN_MOTION":14.78370777,"ECCENTRICITY":0.00017597,"INCLINATION":98.0081,"RA_OF_ASC_NODE":349.9855,"ARG_OF_PERICENTER":165.8128,"MEAN_ANOMALY":194.3133,"EPHEMERIS_TYPE":0,"NORAD_CAT_ID":62085,"ELEMENT_SET_NO":999,"REV_AT_EPOCH":8667,"BSTAR":0.0001895452,"MEAN_MOTION_DOT":0.00001328,"MEAN_MOTION_DDOT":0},{"OBJECT_NAME":"KINEIS-2C","OBJECT_ID":"2025-028B","EPOCH":"2026-07-04T21:50:20.799744","CLASSIFICATION_TYPE":"U","MEAN_MOTION":14.73409545,"ECCENTRICITY":0.00033911,"INCLINATION":98.1234,"RA_OF_ASC_NODE":240.3227,"ARG_OF_PERICENTER":189.328,"MEAN_ANOMALY":170.7866,"EPHEMERIS_TYPE":0,"NORAD_CAT_ID":62929,"ELEMENT_SET_NO":999,"REV_AT_EPOCH":7522,"BSTAR":0.00035332365,"MEAN_MOTION_DOT":0.0000224,"MEAN_MOTION_DDOT":0}]}
